1 08820U 76039A   03237.79586560  .00000007  00000-0  10000-3 0  9591
2 08820 109.8079 205.4194 0044565 286.2524  73.3154  6.38664491381509
